satname,norad_id,inclination_deg,eccentricity,mean_motion_rev_per_day,perigee_km,apogee_km,l1,l2
STARLINK-1184,45098,53.0546,0.0004467,15.08978837,536.2290247169858,542.4090799541418,1 45098U 20006BG  26036.42499242  .00028899  00000+0  18191-2 0  9994,2 45098  53.0546  30.9923 0004467  40.0972 320.0347 15.08978837332160
STARLINK-1193,45100,53.0552,0.0004606,15.4657685,423.6144172061113,429.8830779567843,1 45100U 20006BJ  26036.91670139  .00167903  00000+0  32568-2 0  9992,2 45100  53.0552  22.9454 0004606  80.9108 190.6798 15.46576850  5866
STARLINK-1143,45179,53.0489,0.0003744,15.56339764,395.7238114817992,400.797978225467,1 45179U 20012B   26036.63658329  .00055351  00000+0  77312-3 0  9991,2 45179  53.0489 125.7674 0003744 312.4671  47.6022 15.56339764330928
STARLINK-1202,45183,53.1583,0.0001231,15.2936624,476.8617031683252,478.5496116305767,1 45183U 20012F   26036.68379067  .00007166  00000+0  26032-3 0  9994,2 45183  53.1583 187.9103 0001231  79.8637 280.2503 15.29366240330053
STARLINK-1216,45185,53.1621,0.0001305,15.30204036,474.3086578048669,476.0973795497421,1 45185U 20012H   26036.80540679  .00003827  00000+0  14126-3 0  9990,2 45185  53.1621 187.3274 0001305  87.1077 273.0073 15.30204036330017
STARLINK-1225,45187,53.1625,0.0001303,15.30213748,474.2810342507555,476.06700710274345,1 45187U 20012K   26036.73699696  .00005668  00000+0  20327-3 0  9993,2 45187  53.1625 188.0855 0001303  67.4504 292.6634 15.30213748330043
STARLINK-1230,45189,53.161,9.41e-05,15.30249749,474.42164544458865,475.7114183492922,1 45189U 20012M   26036.81179336  .00021418  00000+0  73204-3 0  9991,2 45189  53.1610 187.7956 0000941  81.7059 278.4048 15.30249749327281
STARLINK-1234,45190,53.0457,0.0007667,15.55084425,396.70896750829525,407.10548732661664,1 45190U 20012N   26036.91670139  .00084295  00000+0  12239-2 0  9993,2 45190  53.0457 119.7340 0007667 217.7262 190.0290 15.55084425  5963
STARLINK-1269,45197,53.1626,0.0001145,15.30221337,474.3666602062058,475.93606324104076,1 45197U 20012V   26036.80863003  .00020184  00000+0  69128-3 0  9999,2 45197  53.1626 187.6708 0001145  82.3602 277.7529 15.30221337330035
STARLINK-1154,45198,53.0505,0.0003426,15.41289375,439.96619459827343,444.6395600021988,1 45198U 20012W   26036.76392361  .00110502  00000+0  25857-2 0  9993,2 45198  53.0505 161.7114 0003426 333.9968  26.0864 15.41289375330360
STARLINK-1199,45201,53.0548,8.89e-05,15.06431984,546.4978785467938,547.7291880916164,1 45201U 20012Z   26036.68886266  .00011665  00000+0  79999-3 0  9998,2 45201  53.0548 170.2773 0000889  65.4040 294.7042 15.06431984330296
STARLINK-1209,45206,53.0484,0.0009556,15.45378329,423.76054351687617,436.77276458049255,1 45206U 20012AE  26036.91670139  .00068800  00000+0  14118-2 0  9993,2 45206  53.0484 125.4668 0009556 194.8159 195.7698 15.45378329  5936
STARLINK-1210,45207,53.0113,0.000754,15.91769272,292.29839055319644,302.36499734367044,1 45207U 20012AF  26036.91670139  .00402519  72892-4  12056-2 0  9995,2 45207  53.0113  63.4173 0007540  29.7965 199.6265 15.91769272  5946
STARLINK-1231,45212,53.0485,0.000139,15.18554409,509.25125194860357,511.1662120621004,1 45212U 20012AL  26036.78319072  .00061168  00000+0  29152-2 0  9995,2 45212  53.0485 162.0081 0001390 288.5599  71.5244 15.18554409330379
STARLINK-1271,45217,53.0558,0.0001406,15.06405106,546.2222070208963,548.169610634859,1 45217U 20012AR  26036.74048241  .00006621  00000+0  46289-3 0  9997,2 45217  53.0558 170.0459 0001406  88.6538 271.4612 15.06405106330302
STARLINK-1191,45222,53.1605,0.0001277,15.31039221,471.8355982208295,473.5853046599268,1 45222U 20012AW  26036.74107141  .00008400  00000+0  28793-3 0  9995,2 45222  53.1605 147.3385 0001277  86.2371 273.8776 15.31039221330623
STARLINK-1212,45223,53.0535,0.0002423,15.42486506,437.12176637583616,440.4252412059741,1 45223U 20012AX  26036.80685207  .00108381  00000+0  24379-2 0  9991,2 45223  53.0535 142.3695 0002423 343.9417  16.1511 15.42486506330700
STARLINK-1215,45225,53.1583,0.0001205,15.30181291,474.44509603440383,476.09676734593995,1 45225U 20012AZ  26036.91670139  .00003108  00000+0  11709-3 0  9998,2 45225  53.1583 145.8878 0001205  84.6525 297.4360 15.30181291  5832
STARLINK-1221,45227,53.0658,0.0001784,15.40664024,442.9312544317718,445.36544584470084,1 45227U 20012BB  26036.36007197  .00023545  00000+0  57664-3 0  9994,2 45227  53.0658  62.6656 0001784 293.8268  66.2549 15.40664024331728
STARLINK-1222,45228,53.057,0.0001606,15.46841045,424.88115164217925,427.0666320606424,1 45228U 20012BC  26036.73417795  .00062510  00000+0  12236-2 0  9995,2 45228  53.0570 135.7478 0001606  36.0231 324.0883 15.46841045330671
STARLINK-1226,45229,53.1608,0.0003943,15.31031587,470.031926333726,475.43452259273727,1 45229U 20012BD  26036.82297003  .00033425  00000+0  11066-2 0  9997,2 45229  53.1608 146.7582 0003943 158.7444 201.3722 15.31031587330537
STARLINK-1227,45230,53.1595,0.0001245,15.31063778,471.78427522924085,473.49011800419885,1 45230U 20012BE  26036.78533677  .00016667  00000+0  55853-3 0  9996,2 45230  53.1595 147.2488 0001245  89.6077 270.5067 15.31063778330641
STARLINK-1246,45235,53.159,0.0001409,15.29365086,476.74311745256546,478.6750948852841,1 45235U 20012BK  26036.68563527  .00014530  00000+0  51472-3 0  9997,2 45235  53.1590 187.8850 0001409  84.0049 276.1112 15.29365086330078
STARLINK-1270,45237,53.0523,0.0001956,15.4177847,439.5265830246717,442.19417479930235,1 45237U 20012BM  26036.74023788  .00119421  00000+0  27456-2 0  9995,2 45237  53.0523 139.5414 0001956 295.8508  64.2294 15.41778470330733
STARLINK-1279,45360,53.0461,0.0008119,15.50886459,408.62196064136515,419.65125452535904,1 45360U 20019A   26036.91670139  .00129949  00000+0  21784-2 0  9990,2 45360  53.0461 252.1247 0008119 112.0647 174.3191 15.50886459  5947
STARLINK-1301,45361,53.0451,0.0010261,15.56809624,389.9455091269774,403.84923466498185,1 45361U 20019B   26036.84253960  .00135188  00000+0  18242-2 0  9999,2 45361  53.0451 259.4781 0010261 100.8603 259.3563 15.56809624325631
STARLINK-1262,45366,53.0541,0.0001656,15.06415205,546.0181271910615,548.3117871992854,1 45366U 20019G   26036.77917095  .00001912  00000+0  14717-3 0  9993,2 45366  53.0541 309.8692 0001656  95.4264 264.6914 15.06415205324920
STARLINK-1273,45367,53.0535,0.0001831,15.40286576,444.01347641651864,446.5122054382664,1 45367U 20019H   26036.91670139  .00019926  00000+0  49586-3 0  9991,2 45367  53.0535 305.5322 0001831 106.3893 271.1084 15.40286576  5700
STARLINK-1276,45368,53.0545,0.0001028,15.06411744,546.4636423719321,547.8874866351944,1 45368U 20019J   26036.77181032 -.00000543  00000+0 -17594-4 0  9997,2 45368  53.0545 309.9040 0001028  76.1855 283.9248 15.06411744324927
STARLINK-1277,45369,53.0539,0.0001426,15.4390089,433.6380074626841,435.5810027659418,1 45369U 20019K   26035.98232209  .00061891  00000+0  13395-2 0  9997,2 45369  53.0539 308.5944 0001426  48.2063 311.9064 15.43900890324870
STARLINK-1281,45370,53.0543,0.0001519,15.06405719,546.1420722989487,548.2459878658883,1 45370U 20019L   26036.76076103  .00009622  00000+0  66387-3 0  9999,2 45370  53.0543 309.9547 0001519  77.8420 282.2739 15.06405719324923
STARLINK-1300,45374,53.0553,0.0001353,15.06411174,546.2403164229809,548.1143064756589,1 45374U 20019Q   26036.78286552  .00006574  00000+0  45967-3 0  9990,2 45374  53.0553 309.8539 0001353  94.5674 265.5469 15.06411174324927
STARLINK-1302,45375,53.0534,0.0001524,15.43993673,433.29834978103736,435.37479172540225,1 45375U 20019R   26036.15331677  .00098856  00000+0  21172-2 0  9996,2 45375  53.0534 307.2623 0001524 109.0790 251.0381 15.43993673324905
STARLINK-1304,45376,53.0553,0.00059,15.42895105,433.5486527182884,441.5911868836538,1 45376U 20019S   26036.76285245  .00094057  00000+0  20912-2 0  9993,2 45376  53.0553 301.6370 0005900 109.8577 250.3064 15.42895105325032
STARLINK-1305,45377,53.048,0.0006412,15.46843849,421.60287857020194,430.32845983318657,1 45377U 20019T   26036.85338866  .00107961  00000+0  20933-2 0  9994,2 45377  53.0480 284.9922 0006412  73.7543 286.4169 15.46843849325284
STARLINK-1319,45379,53.0496,0.0007491,15.5249392,404.3627130177574,414.5318718046474,1 45379U 20019V   26036.71053189  .00116608  00000+0  18498-2 0  9994,2 45379  53.0496 284.8626 0007491  86.3658 273.8208 15.52493920325279
STARLINK-1266,45383,53.0527,0.000211,15.41716149,439.6052939541796,442.48298839575455,1 45383U 20019Z   26036.85874357  .00026917  00000+0  63505-3 0  9995,2 45383  53.0527 284.1264 0002110 102.7930 257.3310 15.41716149325280
STARLINK-1267,45384,53.0524,0.0007796,15.4416313,428.52754365351393,439.14877532218816,1 45384U 20019AA  26036.63779976  .00095882  00000+0  20410-2 0  9997,2 45384  53.0524 280.0707 0007796 124.2725 235.9020 15.44163130325325
STARLINK-1272,45386,53.0475,0.0007748,15.4970567,412.32106470067265,422.8517176676514,1 45386U 20019AC  26036.62063836  .00131261  00000+0  22941-2 0  9992,2 45386  53.0475 264.3855 0007748  91.8452 268.3444 15.49705670325544
STARLINK-1274,45387,53.0297,0.0010592,15.42500873,431.51074805208737,445.9516015936333,1 45387U 20019AD  26036.76413453  .00097610  00000+0  21949-2 0  9998,2 45387  53.0297 255.0249 0010592 125.3405 234.8591 15.42500873325680
STARLINK-1280,45388,53.0471,0.0007458,15.58523843,386.8794429729296,396.97767275904334,1 45388U 20019AE  26036.85653097  .00125418  00000+0  15912-2 0  9990,2 45388  53.0471 278.0885 0007458  87.1317 273.0548 15.58523843325361
STARLINK-1283,45389,53.0472,0.0012628,15.49489258,409.6366952867438,426.8015723382996,1 45389U 20019AF  26036.79766877  .00099595  00000+0  17597-2 0  9992,2 45389  53.0472 263.6984 0012628 121.4291 238.7953 15.49489258325573
STARLINK-1284,45390,53.0529,0.0003511,15.46072229,425.83964514486615,430.619075603121,1 45390U 20019AG  26036.67273711  .00106147  00000+0  21151-2 0  9994,2 45390  53.0529 284.3495 0003511 121.4404 238.6945 15.46072229325261
